0 FENGYUN 1C DEB
1 37903U 99025    13288.82555737  .00004097  00000-0  27071-2 0   610
2 37903 098.1883 296.9500 0380115 073.8161 290.4930 13.72076914294413
0 FENGYUN 1C DEB
1 37903U 99025    13292.25280033  .00004423  00000-0  29462-2 0   626
2 37903 098.1810 299.8493 0376694 064.0027 300.1289 13.72113789294885
0 FENGYUN 1C DEB
1 37903U 99025    13293.27362179  .00004423  00000-0  29462-2 0   632
2 37903 098.1810 300.7232 0376670 061.2411 302.6036 13.72122865295027
0 FENGYUN 1C DEB
1 37903U 99025    13294.80489514  .00004651  00000-0  31003-2 0   643
2 37903 098.1899 302.0559 0376128 057.8024 306.0345 13.72142016295234
0 FENGYUN 1C DEB
1 37903U 99025    13295.82571574  .00005141  00000-0  33524-2 0   650
2 37903 098.1891 302.9611 0383761 054.6914 308.9320 13.72158344295378
